{"type": "FeatureCollection", "features": [ {"type": "Feature", "properties": {"norad_id": 54234, "name": "NOAA 21 (JPSS-2)", "group": "weather", "lat": 51.13611520670567, "lon": -80.64354467543257, "alt_km": 820.9874499514963, "timestamp": "2025-12-20T03:42:47.035724+00:00", "meta": {"OBJECT_NAME": "NOAA 21 (JPSS-2)", "OBJECT_ID": "2022-150A", "EPOCH": "2025-12-19T19:00:39.053952", "MEAN_MOTION": 14.19525995, "ECCENTRICITY": 0.0001915, "INCLINATION": 98.7471, "RA_OF_ASC_NODE": 290.0126, "ARG_OF_PERICENTER": 24.0229, "MEAN_ANOMALY": 336.1036, "EPHEMERIS_TYPE": 0, "CLASSIFICATION_TYPE": "U", "NORAD_CAT_ID": 54234, "ELEMENT_SET_NO": 999, "REV_AT_EPOCH": 16109, "BSTAR": 4.1691e-05, "MEAN_MOTION_DOT": 4.4e-07, "MEAN_MOTION_DDOT": 0}, "tle": {"line1": "1 54234U 22150A   25353.79211868  .00000044  00000+0  41691-4 0  9990", "line2": "2 54234  98.7471 290.0126 0001915  24.0229 336.1036 14.19525995161090"}}, "geometry": {"type": "Point", "coordinates": [-80.64354467543257, 51.13611520670567]}}, {"type": "Feature", "properties": {"norad_id": 54743, "name": "METEOSAT-12 (MTG-I1)", "group": "weather", "lat": 0.6172173357445357, "lon": 144.36055561811304, "alt_km": 35789.4609431635, "timestamp": "2025-12-20T03:42:47.035736+00:00", "meta": {"OBJECT_NAME": "METEOSAT-12 (MTG-I1)", "OBJECT_ID": "2022-170C", "EPOCH": "2025-12-19T06:24:51.136128", "MEAN_MOTION": 1.00270426, "ECCENTRICITY": 0.0001481, "INCLINATION": 0.6935, "RA_OF_ASC_NODE": 24.6802, "ARG_OF_PERICENTER": 239.4026, "MEAN_ANOMALY": 279.9464, "EPHEMERIS_TYPE": 0, "CLASSIFICATION_TYPE": "U", "NORAD_CAT_ID": 54743, "ELEMENT_SET_NO": 999, "REV_AT_EPOCH": 1117, "BSTAR": 0, "MEAN_MOTION_DOT": 1.7e-07, "MEAN_MOTION_DDOT": 0}, "tle": {"line1": "1 54743U 22170C   25353.26725852  .00000017  00000+0  00000+0 0  9996", "line2": "2 54743   0.6935  24.6802 0001481 239.4026 279.9464  1.00270426 11173"}}, "geometry": {"type": "Point", "coordinates": [144.36055561811304, 0.6172173357445357]}}, {"type": "Feature", "properties": {"norad_id": 55973, "name": "TIANMU-1 03", "group": "weather", "lat": -24.03576768480919, "lon": 160.38708851099605, "alt_km": 447.1705998115831, "timestamp": "2025-12-20T03:42:47.035747+00:00", "meta": {"OBJECT_NAME": "TIANMU-1 03", "OBJECT_ID": "2023-039A", "EPOCH": "2025-12-19T20:01:35.236704", "MEAN_MOTION": 15.41119202, "ECCENTRICITY": 0.0004098, "INCLINATION": 97.5103, "RA_OF_ASC_NODE": 156.6848, "ARG_OF_PERICENTER": 40.6668, "MEAN_ANOMALY": 319.4884, "EPHEMERIS_TYPE": 0, "CLASSIFICATION_TYPE": "U", "NORAD_CAT_ID": 55973, "ELEMENT_SET_NO": 999, "REV_AT_EPOCH": 15315, "BSTAR": 0.00026454, "MEAN_MOTION_DOT": 0.00010868, "MEAN_MOTION_DDOT": 0}, "tle": {"line1": "1 55973U 23039A   25353.83443561  .00010868  00000+0  26454-3 0  9994", "line2": "2 55973  97.5103 156.6848 0004098  40.6668 319.4884 15.41119202153153"}}, "geometry": {"type": "Point", "coordinates": [160.38708851099605, -24.03576768480919]}}, {"type": "Feature", "properties": {"norad_id": 55974, "name": "TIANMU-1 04", "group": "weather", "lat": 78.32260685524395, "lon": 15.82652869458594, "alt_km": 433.12734346115485, "timestamp": "2025-12-20T03:42:47.035757+00:00", "meta": {"OBJECT_NAME": "TIANMU-1 04", "OBJECT_ID": "2023-039B", "EPOCH": "2025-12-19T21:03:13.771008", "MEAN_MOTION": 15.4146108, "ECCENTRICITY": 0.0004716, "INCLINATION": 97.5036, "RA_OF_ASC_NODE": 155.9169, "ARG_OF_PERICENTER": 34.7252, "MEAN_ANOMALY": 325.4301, "EPHEMERIS_TYPE": 0, "CLASSIFICATION_TYPE": "U", "NORAD_CAT_ID": 55974, "ELEMENT_SET_NO": 999, "REV_AT_EPOCH": 15316, "BSTAR": 0.00026754, "MEAN_MOTION_DOT": 0.0001112, "MEAN_MOTION_DDOT": 0}, "tle": {"line1": "1 55974U 23039B   25353.87724272  .00011120  00000+0  26754-3 0  9995", "line2": "2 55974  97.5036 155.9169 0004716  34.7252 325.4301 15.41461080153163"}}, "geometry": {"type": "Point", "coordinates": [15.82652869458594, 78.32260685524395]}}, {"type": "Feature", "properties": {"norad_id": 55975, "name": "TIANMU-1 05", "group": "weather", "lat": 58.450635240128435, "lon": -10.900766909518241, "alt_km": 436.0210282346543, "timestamp": "2025-12-20T03:42:47.035771+00:00", "meta": {"OBJECT_NAME": "TIANMU-1 05", "OBJECT_ID": "2023-039C", "EPOCH": "2025-12-19T19:23:59.240256", "MEAN_MOTION": 15.41076104, "ECCENTRICITY": 0.0004152, "INCLINATION": 97.5082, "RA_OF_ASC_NODE": 156.3388, "ARG_OF_PERICENTER": 58.9471, "MEAN_ANOMALY": 301.2182, "EPHEMERIS_TYPE": 0, "CLASSIFICATION_TYPE": "U", "NORAD_CAT_ID": 55975, "ELEMENT_SET_NO": 999, "REV_AT_EPOCH": 15313, "BSTAR": 0.00027257, "MEAN_MOTION_DOT": 0.00011186, "MEAN_MOTION_DDOT": 0}, "tle": {"line1": "1 55975U 23039C   25353.80832454  .00011186  00000+0  27257-3 0  9992", "line2": "2 55975  97.5082 156.3388 0004152  58.9471 301.2182 15.41076104153133"}}, "geometry": {"type": "Point", "coordinates": [-10.900766909518241, 58.450635240128435]}}, {"type": "Feature", "properties": {"norad_id": 55976, "name": "TIANMU-1 06", "group": "weather", "lat": 82.28695137613899, "lon": 80.26830383075286, "alt_km": 431.71269664950523, "timestamp": "2025-12-20T03:42:47.035781+00:00", "meta": {"OBJECT_NAME": "TIANMU-1 06", "OBJECT_ID": "2023-039D", "EPOCH": "2025-12-19T21:06:00.999072", "MEAN_MOTION": 15.41512637, "ECCENTRICITY": 0.0004441, "INCLINATION": 97.5093, "RA_OF_ASC_NODE": 156.8826, "ARG_OF_PERICENTER": 53.2201, "MEAN_ANOMALY": 306.9453, "EPHEMERIS_TYPE": 0, "CLASSIFICATION_TYPE": "U", "NORAD_CAT_ID": 55976, "ELEMENT_SET_NO": 999, "REV_AT_EPOCH": 15316, "BSTAR": 0.00026508, "MEAN_MOTION_DOT": 0.00011035, "MEAN_MOTION_DDOT": 0}, "tle": {"line1": "1 55976U 23039D   25353.87917823  .00011035  00000+0  26508-3 0  9995", "line2": "2 55976  97.5093 156.8826 0004441  53.2201 306.9453 15.41512637153160"}}, "geometry": {"type": "Point", "coordinates": [80.26830383075286, 82.28695137613899]}}, {"type": "Feature", "properties": {"norad_id": 56232, "name": "FENGYUN 3G", "group": "weather", "lat": -13.735060998990916, "lon": 21.024666844504743, "alt_km": 400.9606610611372, "timestamp": "2025-12-20T03:42:47.035793+00:00", "meta": {"OBJECT_NAME": "FENGYUN 3G", "OBJECT_ID": "2023-055A", "EPOCH": "2025-12-19T20:41:32.363232", "MEAN_MOTION": 15.54048176, "ECCENTRICITY": 0.0009327, "INCLINATION": 49.9918, "RA_OF_ASC_NODE": 190.6889, "ARG_OF_PERICENTER": 180.5747, "MEAN_ANOMALY": 179.5212, "EPHEMERIS_TYPE": 0, "CLASSIFICATION_TYPE": "U", "NORAD_CAT_ID": 56232, "ELEMENT_SET_NO": 999, "REV_AT_EPOCH": 15213, "BSTAR": 0.0003313, "MEAN_MOTION_DOT": 0.00021517, "MEAN_MOTION_DDOT": 0}, "tle": {"line1": "1 56232U 23055A   25353.86218013  .00021517  00000+0  33130-3 0  9998", "line2": "2 56232  49.9918 190.6889 0009327 180.5747 179.5212 15.54048176152134"}}, "geometry": {"type": "Point", "coordinates": [21.024666844504743, -13.735060998990916]}}, {"type": "Feature", "properties": {"norad_id": 57166, "name": "METEOR-M2 3", "group": "weather", "lat": 75.69377001793406, "lon": 10.979586755661728, "alt_km": 804.6456960002206, "timestamp": "2025-12-20T03:42:47.035804+00:00", "meta": {"OBJECT_NAME": "METEOR-M2 3", "OBJECT_ID": "2023-091A", "EPOCH": "2025-12-19T20:36:01.535904", "MEAN_MOTION": 14.24026891, "ECCENTRICITY": 0.0003501, "INCLINATION": 98.6368, "RA_OF_ASC_NODE": 47.2731, "ARG_OF_PERICENTER": 347.6449, "MEAN_ANOMALY": 12.4643, "EPHEMERIS_TYPE": 0, "CLASSIFICATION_TYPE": "U", "NORAD_CAT_ID": 57166, "ELEMENT_SET_NO": 999, "REV_AT_EPOCH": 12899, "BSTAR": 2.4498e-05, "MEAN_MOTION_DOT": 1.3e-07, "MEAN_MOTION_DDOT": 0}, "tle": {"line1": "1 57166U 23091A   25353.85835111  .00000013  00000+0  24498-4 0  9994", "line2": "2 57166  98.6368  47.2731 0003501 347.6449  12.4643 14.24026891128993"}}, "geometry": {"type": "Point", "coordinates": [10.979586755661728, 75.69377001793406]}}, {"type": "Feature", "properties": {"norad_id": 57399, "name": "TIANMU-1 07", "group": "weather", "lat": 20.03573603222795, "lon": -133.48407351215363, "alt_km": 481.90972323083133, "timestamp": "2025-12-20T03:42:47.035814+00:00", "meta": {"OBJECT_NAME": "TIANMU-1 07", "OBJECT_ID": "2023-101A", "EPOCH": "2025-12-19T20:43:51.444768", "MEAN_MOTION": 15.28167008, "ECCENTRICITY": 0.0005318, "INCLINATION": 97.2868, "RA_OF_ASC_NODE": 43.5568, "ARG_OF_PERICENTER": 63.4267, "MEAN_ANOMALY": 296.7517, "EPHEMERIS_TYPE": 0, "CLASSIFICATION_TYPE": "U", "NORAD_CAT_ID": 57399, "ELEMENT_SET_NO": 999, "REV_AT_EPOCH": 13424, "BSTAR": 0.00018641, "MEAN_MOTION_DOT": 5.046e-05, "MEAN_MOTION_DDOT": 0}, "tle": {"line1": "1 57399U 23101A   25353.86378987  .00005046  00000+0  18641-3 0  9991", "line2": "2 57399  97.2868  43.5568 0005318  63.4267 296.7517 15.28167008134240"}}, "geometry": {"type": "Point", "coordinates": [-133.48407351215363, 20.03573603222795]}}, {"type": "Feature", "properties": {"norad_id": 57400, "name": "TIANMU-1 08", "group": "weather", "lat": -19.14011846162378, "lon": 46.18297925096463, "alt_km": 485.86317514375787, "timestamp": "2025-12-20T03:42:47.035824+00:00", "meta": {"OBJECT_NAME": "TIANMU-1 08", "OBJECT_ID": "2023-101B", "EPOCH": "2025-12-19T19:56:22.588800", "MEAN_MOTION": 15.28149265, "ECCENTRICITY": 0.0007288, "INCLINATION": 97.2857, "RA_OF_ASC_NODE": 43.3213, "ARG_OF_PERICENTER": 64.135, "MEAN_ANOMALY": 296.064, "EPHEMERIS_TYPE": 0, "CLASSIFICATION_TYPE": "U", "NORAD_CAT_ID": 57400, "ELEMENT_SET_NO": 999, "REV_AT_EPOCH": 13423, "BSTAR": 0.00019424, "MEAN_MOTION_DOT": 5.26e-05, "MEAN_MOTION_DDOT": 0}, "tle": {"line1": "1 57400U 23101B   25353.83081700  .00005260  00000+0  19424-3 0  9993", "line2": "2 57400  97.2857  43.3213 0007288  64.1350 296.0640 15.28149265134239"}}, "geometry": {"type": "Point", "coordinates": [46.18297925096463, -19.14011846162378]}}]}